OBJECT_NAME,OBJECT_ID,EPOCH,MEAN_MOTION,ECCENTRICITY,INCLINATION,RA_OF_ASC_NODE,ARG_OF_PERICENTER,MEAN_ANOMALY,EPHEMERIS_TYPE,CLASSIFICATION_TYPE,NORAD_CAT_ID,ELEMENT_SET_NO,REV_AT_EPOCH,BSTAR,MEAN_MOTION_DOT,MEAN_MOTION_DDOT
SKYSAT-C1,2016-040C,2026-06-04T02:57:47.105568,15.36068708,.00043352,96.9565,187.5531,83.7463,276.4276,0,U,41601,999,55586,.271175E-3,.9456E-4,0
LAPAN-A3,2016-040E,2026-06-04T06:25:07.914144,15.33020023,.00120426,97.1488,151.8390,66.8735,293.3776,0,U,41603,999,55283,.12187568E-3,.382E-4,0
GAOFEN-3,2016-049A,2026-06-04T07:38:30.846048,14.42213598,.00011271,98.4009,163.2987,98.1333,261.9985,0,U,41727,999,51679,.12388759E-4,-.3E-7,0
SKYSAT-C4,2016-058B,2026-06-04T03:33:41.049792,15.48163298,.00010907,96.9177,177.4699,77.7262,282.4112,0,U,41771,999,54345,.3578175E-3,.18739E-3,0
SKYSAT-C5,2016-058C,2026-06-04T01:27:33.511392,15.34274024,.00025655,97.0472,196.2882,19.6846,340.4497,0,U,41772,999,54173,.27236994E-3,.8965E-4,0
SKYSAT-C2,2016-058D,2026-06-04T02:02:52.446336,15.41758337,.0005241,97.0170,177.6762,98.1899,261.9943,0,U,41773,999,54303,.31540093E-3,.13268E-3,0
SKYSAT-C3,2016-058E,2026-06-04T01:21:59.720544,15.51956524,.00021771,96.9012,186.4143,80.1635,279.9865,0,U,41774,999,54407,.41820698E-3,.25073E-3,0
ALSAT-1B,2016-059C,2026-06-04T07:51:01.625760,14.72265121,.00077339,97.7747,164.6457,269.2319,90.8003,0,U,41785,999,51868,.96169898E-4,.56E-5,0
PATHFINDER 1,2016-059E,2026-06-04T07:39:40.951872,14.67648207,.0027048,97.8166,155.1764,246.1642,113.6728,0,U,41787,999,51782,.140445E-3,.756E-5,0
SCATSAT 1,2016-059H,2026-06-04T02:13:46.096896,14.79498037,.00533198,98.1197,218.7238,290.7472,68.8030,0,U,41790,999,9965,.1875143E-3,.1377E-4,0
GOKTURK 1A,2016-073A,2026-06-04T05:58:28.316640,14.62765689,.00014508,98.1265,50.1256,76.1814,283.9549,0,U,41875,999,50693,.14208348E-3,.678E-5,0
RESOURCESAT-2A,2016-074A,2026-06-04T07:57:31.593024,14.21611940,.00032714,98.7527,228.9402,108.0291,252.1243,0,U,41877,999,49247,.79169565E-4,.129E-5,0
CARTOSAT-2D,2017-008A,2026-06-02T11:18:10.162944,15.19207121,.00034572,97.4108,213.0506,298.8344,61.2544,0,U,41948,999,51534,-.11060249E-3,-.2393E-4,0
SENTINEL-2B,2017-013A,2026-06-04T06:29:23.252928,14.30812792,.00012081,98.5692,230.2263,85.3633,274.7688,0,U,42063,999,48279,.29553172E-4,.34E-6,0
CARTOSAT-2E,2017-036C,2026-06-04T07:59:08.812032,15.19217403,.00035373,97.4277,215.3466,13.3269,346.8058,0,U,42767,999,49619,.22427973E-3,.4655E-4,0
FORMOSAT-5,2017-049A,2026-06-04T05:25:00.287328,14.50893855,.00125652,98.2254,230.8231,120.1993,240.0448,0,U,42920,999,46479,.70821534E-4,.236E-5,0
SENTINEL-5P,2017-064A,2026-06-03T10:58:13.453824,14.19516465,.00010192,98.7922,96.6865,80.8558,279.2733,0,U,42969,999,44761,.5408796E-4,.7E-6,0
SKYSAT-C11,2017-068A,2026-06-03T15:06:57.500352,15.57161157,.0001303,97.4343,302.8792,89.5055,270.6349,0,U,42987,999,48113,.42034487E-3,.30479E-3,0
SKYSAT-C10,2017-068B,2026-06-04T04:26:58.509024,15.34404874,.00013402,97.4496,291.9093,90.5092,269.6305,0,U,42988,999,48036,.31430865E-3,.10395E-3,0
SKYSAT-C9,2017-068C,2026-06-04T04:34:08.959008,15.41226215,.00087083,97.4417,292.7260,175.2134,184.9197,0,U,42989,999,48075,.36175194E-3,.14971E-3,0
SKYSAT-C8,2017-068D,2026-06-03T15:43:49.521792,15.36695849,.00015876,97.4513,291.1227,100.5716,259.5707,0,U,42990,999,48023,.33596648E-3,.11964E-3,0
SKYSAT-C7,2017-068E,2026-06-03T07:45:06.640992,15.36634585,.00068117,97.4524,291.7746,147.4751,212.6913,0,U,42991,999,48024,.34605537E-3,.12311E-3,0
SKYSAT-C6,2017-068F,2026-06-03T20:10:13.454400,15.34215986,.00027079,97.4560,292.3173,163.5662,196.5669,0,U,42992,999,48027,.31166974E-3,.10246E-3,0
CARTOSAT-2F,2018-004A,2026-06-04T05:35:29.599872,15.19271765,.00003337,97.4791,214.9929,2.4779,357.6457,0,U,43111,999,46536,.28656561E-3,.5976E-4,0
GAOFEN-1 02,2018-031A,2026-06-04T06:52:38.911872,14.76463926,.00044853,98.0528,217.8486,62.8812,297.2854,0,U,43259,999,44079,.17138981E-3,.1141E-4,0
GAOFEN-1 03,2018-031B,2026-06-04T06:21:10.120608,14.76450253,.00037849,98.0527,217.6870,105.0374,255.1255,0,U,43260,999,44078,.14480806E-3,.956E-5,0
GAOFEN-1 04,2018-031D,2026-06-04T07:23:50.604576,14.76459315,.00021877,98.0529,217.9191,95.5575,264.5884,0,U,43262,999,44078,.88396923E-4,.564E-5,0
SENTINEL-3B,2018-039A,2026-06-04T01:48:36.433152,14.26737956,.00009832,98.6250,222.7952,75.0166,285.1124,0,U,43437,999,42225,.78971101E-4,.147E-5,0
GAOFEN-5 01,2018-043A,2026-06-03T11:56:38.529888,14.60595182,.00029,98.4563,125.7972,108.1077,252.0439,0,U,43461,999,42969,.90445E-4,.391E-5,0
GAOFEN-6,2018-048A,2026-06-04T06:19:45.772608,14.76616218,.00111109,97.7761,218.4210,211.3418,148.7131,0,U,43484,999,43148,.97437587E-4,.632E-5,0
