SKYSAT-C1               
1 41601U 16040C   26155.12346187  .00009456  00000+0  27118-3 0  9999
2 41601  96.9565 187.5531 0004335  83.7463 276.4276 15.36068708555867
LAPAN-A3                
1 41603U 16040E   26155.26745271  .00003820  00000+0  12188-3 0  9993
2 41603  97.1488 151.8390 0012042  66.8735 293.3776 15.33020023552833
GAOFEN-3                
1 41727U 16049A   26155.31841257 -.00000003  00000+0  12389-4 0  9991
2 41727  98.4009 163.2987 0001127  98.1333 261.9985 14.42213598516794
SKYSAT-C4               
1 41771U 16058B   26155.14839178  .00018739  00000+0  35782-3 0  9995
2 41771  96.9177 177.4699 0001090  77.7262 282.4112 15.48163298543453
SKYSAT-C5               
1 41772U 16058C   26155.06080453  .00008965  00000+0  27237-3 0  9997
2 41772  97.0472 196.2882 0002565  19.6846 340.4497 15.34274024541733
SKYSAT-C2               
1 41773U 16058D   26155.08532924  .00013268  00000+0  31540-3 0  9999
2 41773  97.0170 177.6762 0005241  98.1899 261.9943 15.41758337543033
SKYSAT-C3               
1 41774U 16058E   26155.05694121  .00025073  00000+0  41821-3 0  9995
2 41774  96.9012 186.4143 0002177  80.1635 279.9865 15.51956524544078
ALSAT-1B                
1 41785U 16059C   26155.32710215  .00000560  00000+0  96170-4 0  9993
2 41785  97.7747 164.6457 0007733 269.2319  90.8003 14.72265121518682
PATHFINDER 1            
1 41787U 16059E   26155.31922398  .00000756  00000+0  14045-3 0  9998
2 41787  97.8166 155.1764 0027048 246.1642 113.6728 14.67648207517827
SCATSAT 1               
1 41790U 16059H   26155.09289464  .00001377  00000+0  18751-3 0  9995
2 41790  98.1197 218.7238 0053319 290.7472  68.8030 14.79498037 99657
GOKTURK 1A              
1 41875U 16073A   26155.24893885  .00000678  00000+0  14208-3 0  9996
2 41875  98.1265  50.1256 0001450  76.1814 283.9549 14.62765689506931
RESOURCESAT-2A          
1 41877U 16074A   26155.33161566  .00000129  00000+0  79170-4 0  9994
2 41877  98.7527 228.9402 0003271 108.0291 252.1243 14.21611940492472
CARTOSAT-2D             
1 41948U 17008A   26153.47095096 -.00002393  00000+0 -11060-3 0  9998
2 41948  97.4108 213.0506 0003457 298.8344  61.2544 15.19207121515340
SENTINEL-2B             
1 42063U 17013A   26155.27040802  .00000034  00000+0  29553-4 0  9993
2 42063  98.5692 230.2263 0001208  85.3633 274.7688 14.30812792482792
CARTOSAT-2E             
1 42767U 17036C   26155.33274088  .00004655  00000+0  22428-3 0  9997
2 42767  97.4277 215.3466 0003537  13.3269 346.8058 15.19217403496199
FORMOSAT-5              
1 42920U 17049A   26155.22569777  .00000236  00000+0  70822-4 0  9995
2 42920  98.2254 230.8231 0012565 120.1993 240.0448 14.50893855464792
SENTINEL-5P             
1 42969U 17064A   26154.45710016  .00000070  00000+0  54088-4 0  9995
2 42969  98.7922  96.6865 0001019  80.8558 279.2733 14.19516465447611
SKYSAT-C11              
1 42987U 17068A   26154.62983218  .00030479  00000+0  42034-3 0  9997
2 42987  97.4343 302.8792 0001303  89.5055 270.6349 15.57161157481139
SKYSAT-C10              
1 42988U 17068B   26155.18539941  .00010395  00000+0  31431-3 0  9994
2 42988  97.4496 291.9093 0001340  90.5092 269.6305 15.34404874480360
SKYSAT-C9               
1 42989U 17068C   26155.19038147  .00014971  00000+0  36175-3 0  9992
2 42989  97.4417 292.7260 0008708 175.2134 184.9197 15.41226215480752
SKYSAT-C8               
1 42990U 17068D   26154.65543428  .00011964  00000+0  33597-3 0  9991
2 42990  97.4513 291.1227 0001587 100.5716 259.5707 15.36695849480238
SKYSAT-C7               
1 42991U 17068E   26154.32299353  .00012311  00000+0  34606-3 0  9990
2 42991  97.4524 291.7746 0006811 147.4751 212.6913 15.36634585480247
SKYSAT-C6               
1 42992U 17068F   26154.84043350  .00010246  00000+0  31167-3 0  9996
2 42992  97.4560 292.3173 0002707 163.5662 196.5669 15.34215986480278
CARTOSAT-2F             
1 43111U 18004A   26155.23298148  .00005976  00000+0  28657-3 0  9996
2 43111  97.4791 214.9929 0000333   2.4779 357.6457 15.19271765465368
GAOFEN-1 02             
1 43259U 18031A   26155.28656148  .00001141  00000+0  17139-3 0  9995
2 43259  98.0528 217.8486 0004485  62.8812 297.2854 14.76463926440790
GAOFEN-1 03             
1 43260U 18031B   26155.26470047  .00000956  00000+0  14481-3 0  9997
2 43260  98.0527 217.6870 0003784 105.0374 255.1255 14.76450253440786
GAOFEN-1 04             
1 43262U 18031D   26155.30822459  .00000564  00000+0  88397-4 0  9995
2 43262  98.0529 217.9191 0002187  95.5575 264.5884 14.76459315440781
SENTINEL-3B             
1 43437U 18039A   26155.07542168  .00000147  00000+0  78971-4 0  9991
2 43437  98.6250 222.7952 0000983  75.0166 285.1124 14.26737956422255
GAOFEN-5 01             
1 43461U 18043A   26154.49766817  .00000391  00000+0  90445-4 0  9998
2 43461  98.4563 125.7972 0002900 108.1077 252.0439 14.60595182429699
GAOFEN-6                
1 43484U 18048A   26155.26372422  .00000632  00000+0  97438-4 0  9996
2 43484  97.7761 218.4210 0011110 211.3418 148.7131 14.76616218431481
